[{"OBJECT_NAME":"KHAYYAM","OBJECT_ID":"2022-096A","EPOCH":"2026-03-09T23:16:46.350624","MEAN_MOTION":15.24771015,"ECCENTRICITY":0.00024081,"INCLINATION":97.351,"RA_OF_ASC_NODE":334.9969,"ARG_OF_PERICENTER":70.558,"MEAN_ANOMALY":289.5917,"EPHEMERIS_TYPE":0,"CLASSIFICATION_TYPE":"U","NORAD_CAT_ID":53370,"ELEMENT_SET_NO":999,"REV_AT_EPOCH":19946,"BSTAR":0.00026923471,"MEAN_MOTION_DOT":6.603e-5,"MEAN_MOTION_DDOT":0},{"OBJECT_NAME":"AEROCUBE 18B","OBJECT_ID":"2025-052N","EPOCH":"2026-03-09T16:50:02.994720","MEAN_MOTION":15.23094619,"ECCENTRICITY":0.00062515,"INCLINATION":97.4088,"RA_OF_ASC_NODE":323.4677,"ARG_OF_PERICENTER":110.4629,"MEAN_ANOMALY":249.728,"EPHEMERIS_TYPE":0,"CLASSIFICATION_TYPE":"U","NORAD_CAT_ID":63222,"ELEMENT_SET_NO":999,"REV_AT_EPOCH":5474,"BSTAR":0.00034527206,"MEAN_MOTION_DOT":8.078e-5,"MEAN_MOTION_DDOT":0}]
